FENGYUN 1C DEB          
1 32086U 99025CQC 26057.97679849  .00002192  00000+0  18965-2 0  9997
2 32086  99.2669 115.0798 0295769 295.9025  61.1910 13.69263218628244
FENGYUN 1C DEB          
1 32089U 99025CQF 26059.25490269  .00001176  00000+0  59997-3 0  9992
2 32089  98.6535  67.4334 0113382 263.7825  95.0422 14.14308490643119
FENGYUN 1C DEB          
1 32093U 99025CQK 26064.05998494  .00001302  00000+0  43120-3 0  9996
2 32093  98.9150 284.9781 0079694 109.9324 251.0469 14.37867337977002
FENGYUN 1C DEB          
1 32094U 99025CQL 26060.42556736  .00000719  00000+0  42263-3 0  9991
2 32094  98.7524  53.7555 0035871  46.3004 314.1129 14.10849789954747
FENGYUN 1C DEB          
1 32095U 99025CQM 26064.83089777  .00000602  00000+0  31659-3 0  9995
2 32095  98.6380  82.9684 0077475 213.0510 146.5809 14.16156836959933
FENGYUN 1C DEB          
1 32096U 99025CQN 26064.32395119  .00001163  00000+0  90420-3 0  9994
2 32096  99.0658  96.3169 0133477 275.5282  83.0666 13.90442683940090
FENGYUN 1C DEB          
1 32098U 99025CQQ 26053.76686422  .00000858  00000+0  34947-3 0  9994
2 32098  98.6187  49.3937 0193420 271.6691  86.2341 14.20450580652500
FENGYUN 1C DEB          
1 32105U 99025CQX 26063.23897559  .00001883  00000+0  22309-2 0  9998
2 32105 103.4727  86.4519 0397962 265.6449  89.9108 13.40698234608034
FENGYUN 1C DEB          
1 32109U 99025CRB 26064.89255215  .00001536  00000+0  44374-3 0  9994
2 32109  98.3523 306.7619 0206804  64.2886 297.9492 14.34234393660801
FENGYUN 1C DEB          
1 32110U 99025CRC 26062.44279682  .00004708  00000+0  18446-2 0  9993
2 32110  99.5488 244.2759 0033965 137.8251 253.9334 14.29656035655419
FENGYUN 1C DEB          
1 32111U 99025CRD 26064.50273965  .00001033  00000+0  37389-3 0  9997
2 32111  98.4483  66.9999 0119223 320.8874 191.1941 14.31679897972159
FENGYUN 1C DEB          
1 32113U 99025CRF 26063.88709132  .00001456  00000+0  88605-3 0  9995
2 32113  99.0158 101.8903 0236453   2.0667 358.1417 13.94794815640314
FENGYUN 1C DEB          
1 32114U 99025CRG 26061.11271568  .00019679  00000+0  25671-2 0  9996
2 32114  99.9264 201.4854 0042847 105.6634 254.9305 14.79947435669020
FENGYUN 1C DEB          
1 32117U 99025CRK 26065.57176166  .00002735  00000+0  11963-2 0  9995
2 32117  98.6025 114.1896 0027891 202.7038 157.2910 14.24371102959907
FENGYUN 1C DEB          
1 32119U 99025CRM 26053.92441677  .00001293  00000+0  83900-3 0  9994
2 32119  99.8841 287.5875 0084211 218.3364 141.1795 14.03028508947405
