[{"OBJECT_NAME":"FENGYUN 1C DEB","OBJECT_ID":"1999-025CQC","EPOCH":"2026-02-26T23:26:35.389536","MEAN_MOTION":13.69263218,"ECCENTRICITY":0.0295769,"INCLINATION":99.2669,"RA_OF_ASC_NODE":115.0798,"ARG_OF_PERICENTER":295.9025,"MEAN_ANOMALY":61.191,"EPHEMERIS_TYPE":0,"CLASSIFICATION_TYPE":"U","NORAD_CAT_ID":32086,"ELEMENT_SET_NO":999,"REV_AT_EPOCH":62824,"BSTAR":0.0018965221,"MEAN_MOTION_DOT":2.192e-5,"MEAN_MOTION_DDOT":0},{"OBJECT_NAME":"FENGYUN 1C DEB","OBJECT_ID":"1999-025CQF","EPOCH":"2026-02-28T06:07:03.592416","MEAN_MOTION":14.1430849,"ECCENTRICITY":0.0113382,"INCLINATION":98.6535,"RA_OF_ASC_NODE":67.4334,"ARG_OF_PERICENTER":263.7825,"MEAN_ANOMALY":95.0422,"EPHEMERIS_TYPE":0,"CLASSIFICATION_TYPE":"U","NORAD_CAT_ID":32089,"ELEMENT_SET_NO":999,"REV_AT_EPOCH":64311,"BSTAR":0.00059997,"MEAN_MOTION_DOT":1.176e-5,"MEAN_MOTION_DDOT":0},{"OBJECT_NAME":"FENGYUN 1C DEB","OBJECT_ID":"1999-025CQK","EPOCH":"2026-03-05T01:26:22.698816","MEAN_MOTION":14.37867337,"ECCENTRICITY":0.00796944,"INCLINATION":98.915,"RA_OF_ASC_NODE":284.9781,"ARG_OF_PERICENTER":109.9324,"MEAN_ANOMALY":251.0469,"EPHEMERIS_TYPE":0,"CLASSIFICATION_TYPE":"U","NORAD_CAT_ID":32093,"ELEMENT_SET_NO":999,"REV_AT_EPOCH":97700,"BSTAR":0.00043119823,"MEAN_MOTION_DOT":1.302e-5,"MEAN_MOTION_DDOT":0},{"OBJECT_NAME":"FENGYUN 1C DEB","OBJECT_ID":"1999-025CQL","EPOCH":"2026-03-01T10:12:49.019904","MEAN_MOTION":14.10849789,"ECCENTRICITY":0.00358717,"INCLINATION":98.7524,"RA_OF_ASC_NODE":53.7555,"ARG_OF_PERICENTER":46.3004,"MEAN_ANOMALY":314.1129,"EPHEMERIS_TYPE":0,"CLASSIFICATION_TYPE":"U","NORAD_CAT_ID":32094,"ELEMENT_SET_NO":999,"REV_AT_EPOCH":95474,"BSTAR":0.00042263489,"MEAN_MOTION_DOT":7.19e-6,"MEAN_MOTION_DDOT":0},{"OBJECT_NAME":"FENGYUN 1C DEB","OBJECT_ID":"1999-025CQM","EPOCH":"2026-03-05T19:56:29.567328","MEAN_MOTION":14.16156836,"ECCENTRICITY":0.00774757,"INCLINATION":98.638,"RA_OF_ASC_NODE":82.9684,"ARG_OF_PERICENTER":213.051,"MEAN_ANOMALY":146.5809,"EPHEMERIS_TYPE":0,"CLASSIFICATION_TYPE":"U","NORAD_CAT_ID":32095,"ELEMENT_SET_NO":999,"REV_AT_EPOCH":95993,"BSTAR":0.00031659344,"MEAN_MOTION_DOT":6.02e-6,"MEAN_MOTION_DDOT":0},{"OBJECT_NAME":"FENGYUN 1C DEB","OBJECT_ID":"1999-025CQN","EPOCH":"2026-03-05T07:46:29.382816","MEAN_MOTION":13.90442683,"ECCENTRICITY":0.0133477,"INCLINATION":99.0658,"RA_OF_ASC_NODE":96.3169,"ARG_OF_PERICENTER":275.5282,"MEAN_ANOMALY":83.0666,"EPHEMERIS_TYPE":0,"CLASSIFICATION_TYPE":"U","NORAD_CAT_ID":32096,"ELEMENT_SET_NO":999,"REV_AT_EPOCH":94009,"BSTAR":0.0009042,"MEAN_MOTION_DOT":1.163e-5,"MEAN_MOTION_DDOT":0},{"OBJECT_NAME":"FENGYUN 1C DEB","OBJECT_ID":"1999-025CQQ","EPOCH":"2026-02-22T18:24:17.068608","MEAN_MOTION":14.2045058,"ECCENTRICITY":0.019342,"INCLINATION":98.6187,"RA_OF_ASC_NODE":49.3937,"ARG_OF_PERICENTER":271.6691,"MEAN_ANOMALY":86.2341,"EPHEMERIS_TYPE":0,"CLASSIFICATION_TYPE":"U","NORAD_CAT_ID":32098,"ELEMENT_SET_NO":999,"REV_AT_EPOCH":65250,"BSTAR":0.00034947048,"MEAN_MOTION_DOT":8.58e-6,"MEAN_MOTION_DDOT":0},{"OBJECT_NAME":"FENGYUN 1C DEB","OBJECT_ID":"1999-025CQX","EPOCH":"2026-03-04T05:44:07.490976","MEAN_MOTION":13.40698234,"ECCENTRICITY":0.03979623,"INCLINATION":103.4727,"RA_OF_ASC_NODE":86.4519,"ARG_OF_PERICENTER":265.6449,"MEAN_ANOMALY":89.9108,"EPHEMERIS_TYPE":0,"CLASSIFICATION_TYPE":"U","NORAD_CAT_ID":32105,"ELEMENT_SET_NO":999,"REV_AT_EPOCH":60803,"BSTAR":0.0022308609,"MEAN_MOTION_DOT":1.883e-5,"MEAN_MOTION_DDOT":0},{"OBJECT_NAME":"FENGYUN 1C DEB","OBJECT_ID":"1999-025CRB","EPOCH":"2026-03-05T21:25:16.505760","MEAN_MOTION":14.34234393,"ECCENTRICITY":0.02068046,"INCLINATION":98.3523,"RA_OF_ASC_NODE":306.7619,"ARG_OF_PERICENTER":64.2886,"MEAN_ANOMALY":297.9492,"EPHEMERIS_TYPE":0,"CLASSIFICATION_TYPE":"U","NORAD_CAT_ID":32109,"ELEMENT_SET_NO":999,"REV_AT_EPOCH":66080,"BSTAR":0.00044373807,"MEAN_MOTION_DOT":1.536e-5,"MEAN_MOTION_DDOT":0},{"OBJECT_NAME":"FENGYUN 1C DEB","OBJECT_ID":"1999-025CRC","EPOCH":"2026-03-03T10:37:37.645248","MEAN_MOTION":14.29656035,"ECCENTRICITY":0.00339656,"INCLINATION":99.5488,"RA_OF_ASC_NODE":244.2759,"ARG_OF_PERICENTER":137.8251,"MEAN_ANOMALY":253.9334,"EPHEMERIS_TYPE":0,"CLASSIFICATION_TYPE":"U","NORAD_CAT_ID":32110,"ELEMENT_SET_NO":999,"REV_AT_EPOCH":65541,"BSTAR":0.0018446201,"MEAN_MOTION_DOT":4.708e-5,"MEAN_MOTION_DDOT":0},{"OBJECT_NAME":"FENGYUN 1C DEB","OBJECT_ID":"1999-025CRD","EPOCH":"2026-03-05T12:03:56.705760","MEAN_MOTION":14.31679897,"ECCENTRICITY":0.0119223,"INCLINATION":98.4483,"RA_OF_ASC_NODE":66.9999,"ARG_OF_PERICENTER":320.8874,"MEAN_ANOMALY":191.1941,"EPHEMERIS_TYPE":0,"CLASSIFICATION_TYPE":"U","NORAD_CAT_ID":32111,"ELEMENT_SET_NO":999,"REV_AT_EPOCH":97215,"BSTAR":0.00037389,"MEAN_MOTION_DOT":1.033e-5,"MEAN_MOTION_DDOT":0},{"OBJECT_NAME":"FENGYUN 1C DEB","OBJECT_ID":"1999-025CRF","EPOCH":"2026-03-04T21:17:24.690048","MEAN_MOTION":13.94794815,"ECCENTRICITY":0.02364539,"INCLINATION":99.0158,"RA_OF_ASC_NODE":101.8903,"ARG_OF_PERICENTER":2.0667,"MEAN_ANOMALY":358.1417,"EPHEMERIS_TYPE":0,"CLASSIFICATION_TYPE":"U","NORAD_CAT_ID":32113,"ELEMENT_SET_NO":999,"REV_AT_EPOCH":64031,"BSTAR":0.00088604672,"MEAN_MOTION_DOT":1.456e-5,"MEAN_MOTION_DDOT":0},{"OBJECT_NAME":"FENGYUN 1C DEB","OBJECT_ID":"1999-025CRG","EPOCH":"2026-03-02T02:42:18.634752","MEAN_MOTION":14.79947435,"ECCENTRICITY":0.00428474,"INCLINATION":99.9264,"RA_OF_ASC_NODE":201.4854,"ARG_OF_PERICENTER":105.6634,"MEAN_ANOMALY":254.9305,"EPHEMERIS_TYPE":0,"CLASSIFICATION_TYPE":"U","NORAD_CAT_ID":32114,"ELEMENT_SET_NO":999,"REV_AT_EPOCH":66902,"BSTAR":0.0025671381,"MEAN_MOTION_DOT":0.00019679,"MEAN_MOTION_DDOT":0},{"OBJECT_NAME":"FENGYUN 1C DEB","OBJECT_ID":"1999-025CRK","EPOCH":"2026-03-06T13:43:20.207424","MEAN_MOTION":14.24371102,"ECCENTRICITY":0.00278916,"INCLINATION":98.6025,"RA_OF_ASC_NODE":114.1896,"ARG_OF_PERICENTER":202.7038,"MEAN_ANOMALY":157.291,"EPHEMERIS_TYPE":0,"CLASSIFICATION_TYPE":"U","NORAD_CAT_ID":32117,"ELEMENT_SET_NO":999,"REV_AT_EPOCH":95990,"BSTAR":0.001196303,"MEAN_MOTION_DOT":2.735e-5,"MEAN_MOTION_DDOT":0},{"OBJECT_NAME":"FENGYUN 1C DEB","OBJECT_ID":"1999-025CRM","EPOCH":"2026-02-22T22:11:09.608928","MEAN_MOTION":14.03028508,"ECCENTRICITY":0.0084211,"INCLINATION":99.8841,"RA_OF_ASC_NODE":287.5875,"ARG_OF_PERICENTER":218.3364,"MEAN_ANOMALY":141.1795,"EPHEMERIS_TYPE":0,"CLASSIFICATION_TYPE":"U","NORAD_CAT_ID":32119,"ELEMENT_SET_NO":999,"REV_AT_EPOCH":94740,"BSTAR":0.000839,"MEAN_MOTION_DOT":1.293e-5,"MEAN_MOTION_DDOT":0}]
